[{"OBJECT_NAME":"KUIPER-00300","OBJECT_ID":"2026-072AA","EPOCH":"2026-04-11T06:00:02.000160","MEAN_MOTION":15.36774447,"ECCENTRICITY":0.00083416,"INCLINATION":51.8667,"RA_OF_ASC_NODE":140.6761,"ARG_OF_PERICENTER":135.9377,"MEAN_ANOMALY":163.1096,"EPHEMERIS_TYPE":0,"CLASSIFICATION_TYPE":"U","NORAD_CAT_ID":68597,"ELEMENT_SET_NO":999,"REV_AT_EPOCH":130,"BSTAR":-0.00038182762,"MEAN_MOTION_DOT":-0.00014317,"MEAN_MOTION_DDOT":0},{"OBJECT_NAME":"KUIPER-00301","OBJECT_ID":"2026-072AB","EPOCH":"2026-04-11T06:00:02.000160","MEAN_MOTION":15.36448048,"ECCENTRICITY":0.00090254,"INCLINATION":51.8644,"RA_OF_ASC_NODE":140.6919,"ARG_OF_PERICENTER":138.9639,"MEAN_ANOMALY":152.3759,"EPHEMERIS_TYPE":0,"CLASSIFICATION_TYPE":"U","NORAD_CAT_ID":68598,"ELEMENT_SET_NO":999,"REV_AT_EPOCH":181,"BSTAR":-0.00037703488,"MEAN_MOTION_DOT":-0.00014001,"MEAN_MOTION_DDOT":0},{"OBJECT_NAME":"KUIPER-00304","OBJECT_ID":"2026-072AC","EPOCH":"2026-04-11T06:00:02.000160","MEAN_MOTION":15.36359037,"ECCENTRICITY":0.00096745,"INCLINATION":51.8657,"RA_OF_ASC_NODE":140.6961,"ARG_OF_PERICENTER":139.0785,"MEAN_ANOMALY":150.1184,"EPHEMERIS_TYPE":0,"CLASSIFICATION_TYPE":"U","NORAD_CAT_ID":68599,"ELEMENT_SET_NO":999,"REV_AT_EPOCH":223,"BSTAR":-0.00042210406,"MEAN_MOTION_DOT":-0.00015584,"MEAN_MOTION_DDOT":0},{"OBJECT_NAME":"KUIPER-00317","OBJECT_ID":"2026-072AD","EPOCH":"2026-04-11T06:00:02.000160","MEAN_MOTION":15.36678308,"ECCENTRICITY":0.00087626,"INCLINATION":51.868,"RA_OF_ASC_NODE":140.6815,"ARG_OF_PERICENTER":131.3104,"MEAN_ANOMALY":164.9339,"EPHEMERIS_TYPE":0,"CLASSIFICATION_TYPE":"U","NORAD_CAT_ID":68600,"ELEMENT_SET_NO":999,"REV_AT_EPOCH":177,"BSTAR":-0.00038006183,"MEAN_MOTION_DOT":-0.00014212,"MEAN_MOTION_DDOT":0},{"OBJECT_NAME":"KUIPER-00320","OBJECT_ID":"2026-072AE","EPOCH":"2026-04-11T06:00:02.000160","MEAN_MOTION":15.35869675,"ECCENTRICITY":0.00114322,"INCLINATION":51.8595,"RA_OF_ASC_NODE":140.7224,"ARG_OF_PERICENTER":144.9377,"MEAN_ANOMALY":130.9785,"EPHEMERIS_TYPE":0,"CLASSIFICATION_TYPE":"U","NORAD_CAT_ID":68601,"ELEMENT_SET_NO":999,"REV_AT_EPOCH":222,"BSTAR":-0.00042844286,"MEAN_MOTION_DOT":-0.0001558,"MEAN_MOTION_DDOT":0},{"OBJECT_NAME":"STP-S29A OBJECT A","OBJECT_ID":"2026-074A","EPOCH":"2026-04-11T04:46:51.525408","MEAN_MOTION":15.2315952,"ECCENTRICITY":0.00159467,"INCLINATION":60.0174,"RA_OF_ASC_NODE":75.1315,"ARG_OF_PERICENTER":307.4038,"MEAN_ANOMALY":52.559,"EPHEMERIS_TYPE":0,"CLASSIFICATION_TYPE":"U","NORAD_CAT_ID":68627,"ELEMENT_SET_NO":999,"REV_AT_EPOCH":57,"BSTAR":0.00034974817,"MEAN_MOTION_DOT":8.084e-5,"MEAN_MOTION_DDOT":0},{"OBJECT_NAME":"STP-S29A OBJECT B","OBJECT_ID":"2026-074B","EPOCH":"2026-04-11T04:46:26.754528","MEAN_MOTION":15.23271797,"ECCENTRICITY":0.00142771,"INCLINATION":60.0222,"RA_OF_ASC_NODE":75.1379,"ARG_OF_PERICENTER":310.1809,"MEAN_ANOMALY":49.8021,"EPHEMERIS_TYPE":0,"CLASSIFICATION_TYPE":"U","NORAD_CAT_ID":68628,"ELEMENT_SET_NO":999,"REV_AT_EPOCH":56,"BSTAR":0.00026203382,"MEAN_MOTION_DOT":6.0e-5,"MEAN_MOTION_DDOT":0},{"OBJECT_NAME":"STP-S29A OBJECT C","OBJECT_ID":"2026-074C","EPOCH":"2026-04-11T04:45:00.961920","MEAN_MOTION":15.23692177,"ECCENTRICITY":0.00176383,"INCLINATION":60.0213,"RA_OF_ASC_NODE":75.1315,"ARG_OF_PERICENTER":316.993,"MEAN_ANOMALY":42.9771,"EPHEMERIS_TYPE":0,"CLASSIFICATION_TYPE":"U","NORAD_CAT_ID":68629,"ELEMENT_SET_NO":999,"REV_AT_EPOCH":57,"BSTAR":0.00039658989,"MEAN_MOTION_DOT":9.363e-5,"MEAN_MOTION_DDOT":0},{"OBJECT_NAME":"STP-S29A OBJECT D","OBJECT_ID":"2026-074D","EPOCH":"2026-04-11T04:43:52.527072","MEAN_MOTION":15.23999611,"ECCENTRICITY":0.00155367,"INCLINATION":60.0214,"RA_OF_ASC_NODE":75.1282,"ARG_OF_PERICENTER":321.7063,"MEAN_ANOMALY":38.2913,"EPHEMERIS_TYPE":0,"CLASSIFICATION_TYPE":"U","NORAD_CAT_ID":68630,"ELEMENT_SET_NO":999,"REV_AT_EPOCH":56,"BSTAR":0.00017962807,"MEAN_MOTION_DOT":4.115e-5,"MEAN_MOTION_DDOT":0},{"OBJECT_NAME":"STP-S29A OBJECT E","OBJECT_ID":"2026-074E","EPOCH":"2026-04-11T04:43:49.524672","MEAN_MOTION":15.24014546,"ECCENTRICITY":0.00161234,"INCLINATION":60.0209,"RA_OF_ASC_NODE":75.1266,"ARG_OF_PERICENTER":321.7405,"MEAN_ANOMALY":38.253,"EPHEMERIS_TYPE":0,"CLASSIFICATION_TYPE":"U","NORAD_CAT_ID":68631,"ELEMENT_SET_NO":999,"REV_AT_EPOCH":57,"BSTAR":0.00019713854,"MEAN_MOTION_DOT":4.548e-5,"MEAN_MOTION_DDOT":0},{"OBJECT_NAME":"GUOWANG GROUP 21 OBJECT A","OBJECT_ID":"2026-076A","EPOCH":"2026-04-11T06:05:17.758464","MEAN_MOTION":13.83108659,"ECCENTRICITY":0.00071699,"INCLINATION":86.4935,"RA_OF_ASC_NODE":67.5018,"ARG_OF_PERICENTER":210.8861,"MEAN_ANOMALY":149.1885,"EPHEMERIS_TYPE":0,"CLASSIFICATION_TYPE":"U","NORAD_CAT_ID":68656,"ELEMENT_SET_NO":999,"REV_AT_EPOCH":34,"BSTAR":-0.0011945501,"MEAN_MOTION_DOT":-1.289e-5,"MEAN_MOTION_DDOT":0},{"OBJECT_NAME":"GUOWANG GROUP 21 OBJECT B","OBJECT_ID":"2026-076B","EPOCH":"2026-04-11T06:05:09.090816","MEAN_MOTION":13.83166579,"ECCENTRICITY":0.00068445,"INCLINATION":86.4953,"RA_OF_ASC_NODE":67.504,"ARG_OF_PERICENTER":210.5716,"MEAN_ANOMALY":149.5054,"EPHEMERIS_TYPE":0,"CLASSIFICATION_TYPE":"U","NORAD_CAT_ID":68657,"ELEMENT_SET_NO":999,"REV_AT_EPOCH":34,"BSTAR":-0.0011265832,"MEAN_MOTION_DOT":-1.216e-5,"MEAN_MOTION_DDOT":0}]
