KUIPER-00300            
1 68597U 26072AA  26101.25002315 -.00014317  00000+0 -38183-3 0  9993
2 68597  51.8667 140.6761 0008341 135.9377 163.1096 15.36774447  1304
KUIPER-00301            
1 68598U 26072AB  26101.25002315 -.00014001  00000+0 -37703-3 0  9991
2 68598  51.8644 140.6919 0009025 138.9639 152.3759 15.36448048  1816
KUIPER-00304            
1 68599U 26072AC  26101.25002315 -.00015584  00000+0 -42210-3 0  9998
2 68599  51.8657 140.6961 0009674 139.0785 150.1184 15.36359037  2236
KUIPER-00317            
1 68600U 26072AD  26101.25002315 -.00014212  00000+0 -38006-3 0  9996
2 68600  51.8680 140.6815 0008762 131.3104 164.9339 15.36678308  1778
KUIPER-00320            
1 68601U 26072AE  26101.25002315 -.00015580  00000+0 -42844-3 0  9991
2 68601  51.8595 140.7224 0011432 144.9377 130.9785 15.35869675  2226
STP-S29A OBJECT A       
1 68627U 26074A   26101.19920747  .00008084  00000+0  34975-3 0  9997
2 68627  60.0174  75.1315 0015946 307.4038  52.5590 15.23159520   572
STP-S29A OBJECT B       
1 68628U 26074B   26101.19892077  .00006000  00000+0  26203-3 0  9993
2 68628  60.0222  75.1379 0014277 310.1809  49.8021 15.23271797   568
STP-S29A OBJECT C       
1 68629U 26074C   26101.19792780  .00009363  00000+0  39659-3 0  9998
2 68629  60.0213  75.1315 0017638 316.9930  42.9771 15.23692177   578
STP-S29A OBJECT D       
1 68630U 26074D   26101.19713573  .00004115  00000+0  17963-3 0  9997
2 68630  60.0214  75.1282 0015536 321.7063  38.2913 15.23999611   568
STP-S29A OBJECT E       
1 68631U 26074E   26101.19710098  .00004548  00000+0  19714-3 0  9993
2 68631  60.0209  75.1266 0016123 321.7405  38.2530 15.24014546   570
GUOWANG GROUP 21 OBJECT*
1 68656U 26076A   26101.25367776 -.00001289  00000+0 -11946-2 0  9999
2 68656  86.4935  67.5018 0007169 210.8861 149.1885 13.83108659   341
GUOWANG GROUP 21 OBJECT*
1 68657U 26076B   26101.25357744 -.00001216  00000+0 -11266-2 0  9999
2 68657  86.4953  67.5040 0006844 210.5716 149.5054 13.83166579   349
